NORAD_CAT_ID,OBJECT_NAME,OBJECT_TYPE,EPOCH,MEAN_MOTION,ECCENTRICITY,INCLINATION,RA_OF_ASC_NODE,ARG_OF_PERICENTER,MEAN_ANOMALY,BSTAR,MEAN_MOTION_DOT,MEAN_MOTION_DDOT,TLE_LINE0,TLE_LINE1,TLE_LINE2,SEMIMAJOR_AXIS,PERIOD,APOGEE,PERIGEE,DECAYED
53832.0,STARLINK-4747,PAYLOAD,2024-01-13 19:24:45,15.08848089,0.000165,53.2168,231.8261,123.5274,236.5876,9.2456e-06,-1.41e-06,0.0,0 STARLINK-4747,1 53832U 22114Q   24013.80886319 -.00000141  00000-0  92456-5 0  9992,2 53832  53.2168 231.8261 0001650 123.5274 236.5876 15.08848089 73656,6917.856,95.437,540.862,538.579,0.0
53832.0,STARLINK-4747,PAYLOAD,2024-01-14 14:29:23,15.08840948,0.0001535,53.2166,228.2577,83.6399,276.4768,0.00011986,1.62e-05,0.0,0 STARLINK-4747,1 53832U 22114Q   24014.60374744  .00001620  00000-0  11986-3 0  9994,2 53832  53.2166 228.2577 0001535  83.6399 276.4768 15.08840948 74313,6917.877,95.437,540.804,538.681,0.0
53832.0,STARLINK-4747,PAYLOAD,2024-01-14 19:15:33,15.08841789,0.0001513,53.2164,227.3656,84.1828,275.9336,0.00012329,1.675e-05,0.0,0 STARLINK-4747,1 53832U 22114Q   24014.80246694  .00001675  00000-0  12329-3 0  9990,2 53832  53.2164 227.3656 0001513  84.1828 275.9336 15.08841789 73800,6917.875,95.437,540.787,538.693,0.0
53832.0,STARLINK-4747,PAYLOAD,2024-01-14 20:50:56,15.08842292,0.0001509,53.2165,227.0683,82.1986,277.9178,0.00012474,1.698e-05,0.0,0 STARLINK-4747,1 53832U 22114Q   24014.86870684  .00001698  00000-0  12474-3 0  9994,2 53832  53.2165 227.0683 0001509  82.1986 277.9178 15.08842292 74353,6917.873,95.437,540.782,538.694,0.0
53832.0,STARLINK-4747,PAYLOAD,2024-01-15 20:41:43,15.08841867,0.0001547,53.2166,222.6097,101.6289,258.4877,3.8702e-05,3.28e-06,0.0,0 STARLINK-4747,1 53832U 22114Q   24015.86230728  .00000328  00000-0  38702-4 0  9996,2 53832  53.2166 222.6097 0001547 101.6289 258.4877 15.08841867 74503,6917.875,95.437,540.81,538.669,0.0
53832.0,STARLINK-4747,PAYLOAD,2024-01-16 12:35:35,15.08836901,0.0001554,53.2166,219.6368,101.1174,258.9993,2.2524e-05,7e-07,0.0,0 STARLINK-4747,1 53832U 22114Q   24016.52471149  .00000070  00000-0  22524-4 0  9993,2 53832  53.2166 219.6368 0001554 101.1174 258.9993 15.08836901 74604,6917.89,95.438,540.83,538.68,0.0
53832.0,STARLINK-4747,PAYLOAD,2024-01-16 18:57:07,15.08833317,0.0001518,53.2165,218.4453,104.9734,255.1426,-2.4003e-05,-6.7e-06,0.0,0 STARLINK-4747,1 53832U 22114Q   24016.78967535 -.00000670  00000-0 -24003-4 0  9992,2 53832  53.2165 218.4453 0001518 104.9734 255.1426 15.08833317 74101,6917.901,95.438,540.816,538.716,0.0
53832.0,STARLINK-4747,PAYLOAD,2024-01-16 20:32:31,15.08832727,0.0001476,53.2164,218.148,102.3337,257.7821,-3.1187e-05,-7.84e-06,0.0,0 STARLINK-4747,1 53832U 22114Q   24016.85591604 -.00000784  00000-0 -31187-4 0  9997,2 53832  53.2164 218.1480 0001476 102.3337 257.7821 15.08832727 74652,6917.903,95.438,540.789,538.747,0.0
53832.0,STARLINK-4747,PAYLOAD,2024-01-16 23:43:17,15.08833425,0.0001462,53.2162,217.5529,101.4875,258.6282,-2.7858e-05,-7.31e-06,0.0,0 STARLINK-4747,1 53832U 22114Q   24016.98839590 -.00000731  00000-0 -27858-4 0  9992,2 53832  53.2162 217.5529 0001462 101.4875 258.6282 15.08833425 74678,6917.9,95.438,540.777,538.754,0.0
53832.0,STARLINK-4747,PAYLOAD,2024-01-17 18:47:54,15.08838926,0.0001431,53.216,213.9847,102.8782,257.237,6.861e-05,8.04e-06,0.0,0 STARLINK-4747,1 53832U 22114Q   24017.78327170  .00000804  00000-0  68610-4 0  9997,2 53832  53.2160 213.9847 0001431 102.8782 257.2370 15.08838926 74255,6917.884,95.438,540.739,538.759,0.0
53832.0,STARLINK-4747,PAYLOAD,2024-01-17 20:23:17,15.08839487,0.0001369,53.2157,213.6873,96.1642,263.9506,6.9676e-05,8.21e-06,0.0,0 STARLINK-4747,1 53832U 22114Q   24017.84951155  .00000821  00000-0  69676-4 0  9992,2 53832  53.2157 213.6873 0001369  96.1642 263.9506 15.08839487 74806,6917.882,95.438,540.694,538.8,0.0
53832.0,STARLINK-4747,PAYLOAD,2024-01-18 12:17:09,15.08838164,0.0001264,53.2154,210.7133,88.0907,272.023,0.00011252,1.503e-05,0.0,0 STARLINK-4747,1 53832U 22114Q   24018.51191232  .00001503  00000-0  11252-3 0  9993,2 53832  53.2154 210.7133 0001264  88.0907 272.0230 15.08838164 74905,6917.886,95.438,540.625,538.877,0.0
53832.0,STARLINK-4747,PAYLOAD,2024-01-18 20:14:04,15.0884169,0.0001297,53.2155,209.2266,88.1839,271.9301,0.00013613,1.879e-05,0.0,0 STARLINK-4747,1 53832U 22114Q   24018.84310993  .00001879  00000-0  13613-3 0  9995,2 53832  53.2155 209.2266 0001297  88.1839 271.9301 15.08841690 74418,6917.875,95.437,540.637,538.843,0.0
53832.0,STARLINK-4747,PAYLOAD,2024-01-19 12:07:56,15.08840658,0.0001497,53.2158,206.2544,76.6882,283.4277,7.1394e-05,8.48e-06,0.0,0 STARLINK-4747,1 53832U 22114Q   24019.50551358  .00000848  00000-0  71394-4 0  9997,2 53832  53.2158 206.2544 0001497  76.6882 283.4277 15.08840658 75053,6917.878,95.438,540.779,538.708,0.0
53832.0,STARLINK-4747,PAYLOAD,2024-01-19 20:04:51,15.08843236,0.0001466,53.2159,204.7671,77.9031,282.2126,4.6146e-05,4.47e-06,0.0,0 STARLINK-4747,1 53832U 22114Q   24019.83671204  .00000447  00000-0  46146-4 0  9998,2 53832  53.2159 204.7671 0001466  77.9031 282.2126 15.08843236 75105,6917.87,95.437,540.75,538.721,0.0
53832.0,STARLINK-4747,PAYLOAD,2024-01-20 18:20:16,15.08831105,0.000125,53.2162,200.6044,113.9748,246.1375,-5.6237e-05,-1.183e-05,0.0,0 STARLINK-4747,1 53832U 22114Q   24020.76408314 -.00001183  00000-0 -56237-4 0  9994,2 53832  53.2162 200.6044 0001250 113.9748 246.1375 15.08831105 74707,6917.908,95.438,540.637,538.908,0.0
53832.0,STARLINK-4747,PAYLOAD,2024-01-21 11:49:32,15.08821872,0.000145,53.2177,197.3303,111.3426,248.7721,-2.2447e-05,-6.45e-06,0.0,0 STARLINK-4747,1 53832U 22114Q   24021.49273414 -.00000645  00000-0 -22447-4 0  9994,2 53832  53.2177 197.3303 0001450 111.3426 248.7721 15.08821872 74815,6917.936,95.439,540.804,538.798,0.0
53832.0,STARLINK-4747,PAYLOAD,2024-01-21 18:11:04,15.08833322,0.0001552,53.2173,196.1459,73.6826,286.4336,5.0388e-05,5.14e-06,0.0,0 STARLINK-4747,1 53832U 22114Q   24021.75768841  .00000514  00000-0  50388-4 0  9994,2 53832  53.2173 196.1459 0001552  73.6826 286.4336 15.08833322 74855,6917.901,95.438,540.839,538.692,0.0
53832.0,STARLINK-4747,PAYLOAD,2024-01-21 21:21:50,15.08839448,0.0001269,53.2163,195.5471,82.2432,277.8704,3.6239e-05,2.89e-06,0.0,0 STARLINK-4747,1 53832U 22114Q   24021.89016407  .00000289  00000-0  36239-4 0  9991,2 53832  53.2163 195.5471 0001269  82.2432 277.8704 15.08839448 75416,6917.882,95.438,540.625,538.869,0.0
53832.0,STARLINK-4747,PAYLOAD,2024-01-22 11:40:18,15.08835857,0.0001235,53.2166,192.8717,82.476,277.6372,0.00024985,3.69e-05,0.0,0 STARLINK-4747,1 53832U 22114Q   24022.48632211  .00003690  00000-0  24985-3 0  9997,2 53832  53.2166 192.8717 0001235  82.4760 277.6372 15.08835857 74969,6917.893,95.438,540.612,538.904,0.0
53832.0,STARLINK-4747,PAYLOAD,2024-01-22 16:26:27,15.08841611,0.0001281,53.2167,191.9799,80.0037,280.1099,0.000302,4.522e-05,0.0,0 STARLINK-4747,1 53832U 22114Q   24022.68503987  .00004522  00000-0  30200-3 0  9998,2 53832  53.2167 191.9799 0001281  80.0037 280.1099 15.08841611 75536,6917.875,95.437,540.627,538.854,0.0
53832.0,STARLINK-4747,PAYLOAD,2024-01-23 16:17:14,15.08854044,0.0001275,53.2169,187.5192,80.739,279.3746,0.00016506,2.341e-05,0.0,0 STARLINK-4747,1 53832U 22114Q   24023.67863485  .00002341  00000-0  16506-3 0  9990,2 53832  53.2169 187.5192 0001275  80.7390 279.3746 15.08854044 75148,6917.837,95.437,540.584,538.82,0.0
53832.0,STARLINK-4747,PAYLOAD,2024-01-23 17:52:36,15.08855583,0.0001319,53.2172,187.2219,85.7901,274.3242,0.00017468,2.494e-05,0.0,0 STARLINK-4747,1 53832U 22114Q   24023.74487218  .00002494  00000-0  17468-3 0  9991,2 53832  53.2172 187.2219 0001319  85.7901 274.3242 15.08855583 75696,6917.833,95.437,540.61,538.785,0.0
53832.0,STARLINK-4747,PAYLOAD,2024-01-24 14:32:38,15.08845596,0.0001305,53.2173,183.3594,98.5901,261.5239,-8.3247e-06,-4.2e-06,0.0,0 STARLINK-4747,1 53832U 22114Q   24024.60600079 -.00000420  00000-0 -83247-5 0  9998,2 53832  53.2173 183.3594 0001305  98.5901 261.5239 15.08845596 75829,6917.863,95.437,540.631,538.826,0.0
53832.0,STARLINK-4747,PAYLOAD,2024-01-24 16:08:01,15.08845741,0.0001462,53.2179,183.0626,107.6643,252.4508,-5.9026e-06,-3.82e-06,0.0,0 STARLINK-4747,1 53832U 22114Q   24024.67224013 -.00000382  00000-0 -59026-5 0  9990,2 53832  53.2179 183.0626 0001462 107.6643 252.4508 15.08845741 75298,6917.863,95.437,540.739,538.716,0.0
53832.0,STARLINK-4747,PAYLOAD,2024-01-25 14:23:25,15.08841468,0.0001321,53.2171,178.897,105.0158,255.098,-4.9846e-05,-1.081e-05,0.0,0 STARLINK-4747,1 53832U 22114Q   24025.59960272 -.00001081  00000-0 -49846-4 0  9991,2 53832  53.2171 178.8970 0001321 105.0158 255.0980 15.08841468 75971,6917.876,95.437,540.655,538.827,0.0
53832.0,STARLINK-4747,PAYLOAD,2024-01-25 15:58:48,15.08843714,0.0001276,53.2168,178.5991,101.4501,258.6635,-6.1764e-05,-1.271e-05,0.0,0 STARLINK-4747,1 53832U 22114Q   24025.66584161 -.00001271  00000-0 -61764-4 0  9992,2 53832  53.2168 178.5991 0001276 101.4501 258.6635 15.08843714 75442,6917.869,95.437,540.617,538.851,0.0
53832.0,STARLINK-4747,PAYLOAD,2024-01-26 14:14:12,15.08843607,0.0001159,53.2164,174.4383,84.6918,275.4206,0.00020717,3.011e-05,0.0,0 STARLINK-4747,1 53832U 22114Q   24026.59319694  .00003011  00000-0  20717-3 0  9996,2 53832  53.2164 174.4383 0001159  84.6918 275.4206 15.08843607 76120,6917.869,95.437,540.536,538.933,0.0
53832.0,STARLINK-4747,PAYLOAD,2024-01-26 19:00:21,15.08852079,0.000132,53.2158,173.5376,79.774,280.3401,0.0003606,5.458e-05,0.0,0 STARLINK-4747,1 53832U 22114Q   24026.79191466  .00005458  00000-0  36060-3 0  9998,2 53832  53.2158 173.5376 0001320  79.7740 280.3401 15.08852079 75611,6917.843,95.437,540.622,538.795,0.0
53832.0,STARLINK-4747,PAYLOAD,2024-01-27 09:18:50,15.08842444,0.0001386,53.2156,170.8684,74.592,285.5225,0.00013746,1.901e-05,0.0,0 STARLINK-4747,1 53832U 22114Q   24027.38808144  .00001901  00000-0  13746-3 0  9997,2 53832  53.2156 170.8684 0001386  74.5920 285.5225 15.08842444 75702,6917.873,95.437,540.697,538.779,0.0
